STARLINK-1199           
1 45201U 20012Z   26068.25932625 -.00002037  00000+0 -58259-4 0  9999
2 45201  53.1569  25.8332 0001623  88.0191 272.0995 15.29352067335099
FLOCK 4G-24             
1 62637U 25009AE  26068.72509072  .00010513  00000+0  38996-3 0  9991
2 62637  97.4061 151.5140 0001802 280.2808  79.8228 15.27784978 63732
